PELICAN-6               
1 66703U 25276AP  26068.70709364  .00077979  00000+0  29726-2 0  9998
2 66703  97.4276 144.2072 0003569 157.8575 202.2819 15.26377980 15334
STARLINK-35646          
1 66859U 25281M   26068.09242339  .00042308  00000+0  15374-2 0  9994
2 66859  43.0034 346.8924 0001953 259.9846 100.0785 15.27595831 16090
